[{"OBJECT_NAME":"STARLINK-31787","OBJECT_ID":"2024-082V","EPOCH":"2026-03-09T05:50:33.653184","MEAN_MOTION":15.27563218,"ECCENTRICITY":0.00013535,"INCLINATION":43.0025,"RA_OF_ASC_NODE":142.3366,"ARG_OF_PERICENTER":279.3186,"MEAN_ANOMALY":80.7512,"EPHEMERIS_TYPE":0,"CLASSIFICATION_TYPE":"U","NORAD_CAT_ID":59650,"ELEMENT_SET_NO":999,"REV_AT_EPOCH":10494,"BSTAR":4.8583506e-5,"MEAN_MOTION_DOT":1.074e-5,"MEAN_MOTION_DDOT":0},{"OBJECT_NAME":"WT 1B","OBJECT_ID":"2019-032G","EPOCH":"2026-03-09T21:42:21.881088","MEAN_MOTION":15.25021485,"ECCENTRICITY":0.0008099,"INCLINATION":44.9738,"RA_OF_ASC_NODE":242.0209,"ARG_OF_PERICENTER":49.7728,"MEAN_ANOMALY":310.3861,"EPHEMERIS_TYPE":0,"CLASSIFICATION_TYPE":"U","NORAD_CAT_ID":44316,"ELEMENT_SET_NO":999,"REV_AT_EPOCH":37191,"BSTAR":0.00065022477,"MEAN_MOTION_DOT":0.00016297,"MEAN_MOTION_DDOT":0}]
